IRIDIUM 126             
1 42809U 17039G   24115.50862733  .00000729  00000+0  25319-3 0  9990
2 42809  86.3947 321.1591 0002353  88.0169 272.1296 14.34225971357630
IRIDIUM 124             
1 42810U 17039H   24114.92059080  .00000291  00000+0  80570-4 0  9995
2 42810  86.4466 258.1006 0002033  90.0581 270.0853 14.43263152361998
IRIDIUM 128             
1 42811U 17039J   24114.73192728  .00000048  00000+0  99959-5 0  9994
2 42811  86.4006 352.9980 0002228  79.8237 280.3210 14.34215241357545
IRIDIUM 121             
1 42812U 17039K   24115.52764710  .00000774  00000+0  26925-3 0  9996
2 42812  86.3948 321.1742 0002212  90.9435 269.2014 14.34228000357625
IRIDIUM 133             
1 42955U 17061A   24114.69387538 -.00000121  00000+0 -50321-4 0  9991
2 42955  86.4001 353.1119 0002133  88.4065 271.7375 14.34216411342333
IRIDIUM 100             
1 42956U 17061B   24115.10614352  .00000234  00000+0  76592-4 0  9997
2 42956  86.4007 352.8770 0002366  81.6282 278.5182 14.34216470342418
IRIDIUM 122             
1 42957U 17061C   24115.21396190  .00000694  00000+0  24091-3 0  9993
2 42957  86.4000 352.8304 0002177  80.5386 279.6056 14.34215719342415
IRIDIUM 129             
1 42958U 17061D   24114.75095818 -.00000455  00000+0 -16973-3 0  9992
2 42958  86.4002 353.0821 0002263  83.7029 276.4425 14.34216011342365
